[Satellite]
VERSION=1.1
NAME=ROBUSTA-1B
NICKNAME=ROBUSTA-1B
TLE1=1 42792U 17036AD  20157.71472579  .00001217  00000-0  53395-4 0  9998
TLE2=2 42792  97.3024 212.6468 0012546  71.2454 289.0144 15.23774243164031
STATUS=0
